OSCAR 7 (AO-7)          
1 07530U 74089B   23333.85164090 -.00000033  00000+0  81720-4 0  9998
2 07530 101.9648 321.7463 0012387 106.2974 317.3005 12.53669718244177
PHASE 3B (AO-10)        
1 14129U 83058B   23331.40159431  .00000129  00000+0  00000+0 0  9990
2 14129  27.4606  11.0956 6035862 223.8920  67.9901  2.05868141276284
UOSAT 2 (UO-11)         
1 14781U 84021B   23333.92343992  .00003546  00000+0  41471-3 0  9998
2 14781  97.6800 304.7023 0008844  27.3785 332.7895 14.85676110139748
LUSAT (LO-19)           
1 20442U 90005G   23333.47628626  .00000473  00000+0  18815-3 0  9990
2 20442  98.8645 313.7004 0012652  56.9998 303.2400 14.33378541769029
EYESAT A (AO-27)        
1 22825U 93061C   23333.71649897  .00000331  00000+0  14504-3 0  9996
2 22825  98.8199  19.1031 0007548 309.3164  50.7348 14.30387788574226
ITAMSAT (IO-26)         
1 22826U 93061D   23333.60776742  .00000382  00000+0  16354-3 0  9996
2 22826  98.8146  18.8547 0007972 293.3846  66.6497 14.30757859574217
RADIO ROSTO (RS-15)     
1 23439U 94085A   23334.47289901 -.00000037  00000+0  15658-3 0  9990
2 23439  64.8201   6.7514 0156974 180.7890 179.2807 11.27575628191360
JAS-2 (FO-29)           
1 24278U 96046B   23333.44749379  .00000055  00000+0  93433-4 0  9994
2 24278  98.5551 289.6546 0350029 348.5184  10.8120 13.53164559347288
TECHSAT 1B (GO-32)      
1 25397U 98043D   23333.49240814  .00000268  00000+0  13661-3 0  9991
2 25397  98.8936 292.5593 0001963  49.8058 310.3291 14.23949414318854
ISS (ZARYA)             
1 25544U 98067A   23334.68810453  .00026067  00000+0  46332-3 0  9991
2 25544  51.6426 223.8583 0000911 355.2987  98.4937 15.49994401427613
PCSAT (NO-44)           
1 26931U 01043C   23333.77690659  .00000602  00000+0  25955-3 0  9998
2 26931  67.0497 129.2193 0005824 257.9957 102.0492 14.31055080157431
SAUDISAT 1C (SO-50)     
1 27607U 02058C   23333.57677085  .00004195  00000+0  58716-3 0  9994
2 27607  64.5546 117.6557 0049773 187.5573 172.4787 14.77985706126663
CUTE-1 (CO-55)          
1 27844U 03031E   23333.99396862  .00000788  00000+0  36943-3 0  9998
2 27844  98.6789 338.8558 0009937  11.7886 348.3523 14.22980546 59343
CUBESAT XI-IV (CO-57)   
1 27848U 03031J   23333.99320635  .00000655  00000+0  31338-3 0  9993
2 27848  98.6822 339.2022 0010112  26.8532 333.3167 14.22463231 59129
MOZHAYETS 4 (RS-22)     
1 27939U 03042A   23334.49395569  .00003035  00000+0  52539-3 0  9991
2 27939  98.2645 123.0124 0011775 336.3553  64.0266 14.69036772 78956
CUBESAT XI-V            
1 28895U 05043F   23334.06159019  .00003793  00000+0  69252-3 0  9998
2 28895  98.1760 105.1652 0014991 269.2140  90.7346 14.66479971965343
CUTE-1.7+APD II (CO-65) 
1 32785U 08021C   23334.46929691  .00007788  00000+0  73379-3 0  9998
2 32785  97.7304 297.2452 0009664 272.8578  87.1536 14.94055333845703
SEEDS II (CO-66)        
1 32791U 08021J   23334.47418867  .00012796  00000+0  10457-2 0  9996
2 32791  97.6801 302.6949 0008874 197.5497 162.5420 14.99479706846630
YUBILEINY (RS-30)       
1 32953U 08025A   23334.39862237  .00000057  00000+0  33823-3 0  9995
2 32953  82.5046 213.7159 0018934 179.7293 180.3800 12.43132719704307
KKS-1 (KISEKI)          
1 33499U 09002H   23333.78957833  .00003472  00000+0  49106-3 0  9991
2 33499  98.1542 228.0978 0009980  59.8800 300.3398 14.77745153798948
SWISSCUBE               
1 35932U 09051B   23334.20429834  .00002892  00000+0  63596-3 0  9996
2 35932  98.4946 208.3232 0006597 207.9675 152.1169 14.58270986753445
BEESAT-1                
1 35933U 09051C   23333.63108474  .00002406  00000+0  53283-3 0  9990
2 35933  98.4877 208.8892 0004667 222.2911 137.7928 14.58106819753473
ITUPSAT1                
1 35935U 09051E   23333.64362594  .00002270  00000+0  51424-3 0  9992
2 35935  98.4975 208.7822 0006844 231.0171 129.0418 14.57119308753082
XIWANG-1 (HOPE-1)       
1 36122U 09072B   23334.45471456  .00000008  00000+0  13595-3 0  9996
2 36122 100.2650 293.2498 0007267 197.0722 163.0147 13.16391526670773
JUGNU                   
1 37839U 11058B   23333.02782875  .00000649  00000+0  20143-3 0  9999
2 37839  19.9597 202.7353 0018823 236.8731 267.5001 14.13065796627239
SRMSAT                  
1 37841U 11058D   23333.30047021  .00000686  00000+0  23139-3 0  9999
2 37841  19.9726 291.6726 0011928  47.2474  97.9096 14.10992317626372
M-CUBED & EXP-1 PRIME   
1 37855U 11061F   23334.11751274  .00060771  00000+0  13690-2 0  9991
2 37855 101.6966  31.1329 0094479 248.2420 110.8733 15.38405131662438
STRAND-1                
1 39090U 13009E   23334.50026827  .00000904  00000+0  32703-3 0  9999
2 39090  98.3805 163.2928 0009758 124.3954 235.8156 14.35795500563603
BEESAT-3                
1 39135U 13015F   23334.42642521  .00371570  00000+0  19920-2 0  9997
2 39135  64.8425 129.0091 0010069 272.0481  87.9522 15.78955054588210
BEESAT-2                
1 39136U 13015G   23333.86788860  .00189293  00000+0  18748-2 0  9998
2 39136  64.8561 147.6514 0018853 258.7012 101.2019 15.64771083587828
ZACUBE-1 (TSHEPISOSAT)  
1 39417U 13066B   23334.44976420  .00007178  00000+0  79239-3 0  9996
2 39417  97.7096 290.6517 0055091  99.6008 261.1438 14.86630200541887
GOMX-1                  
1 39430U 13066Q   23334.40120280  .00003963  00000+0  67772-3 0  9999
2 39430  97.7562 215.7394 0143300 166.4854 194.0251 14.62814091533822
CUBEBUG-2 (LO-74)       
1 39440U 13066AA  23334.47432915  .00006618  00000+0  82277-3 0  9995
2 39440  97.7926 278.1041 0072144 204.7367 155.0380 14.81025776539956
FUNCUBE-1 (AO-73)       
1 39444U 13066AE  23333.86643474  .00009113  00000+0  95469-3 0  9995
2 39444  97.6951 292.8185 0053097  85.3360 275.3919 14.88741522540868
UWE-3                   
1 39446U 13066AG  23333.83159144  .00006189  00000+0  72912-3 0  9998
2 39446  97.7577 283.5660 0064035 155.3898 205.0395 14.83652802539568
SPROUT                  
1 39770U 14029E   23334.32609947  .00054105  00000+0  30425-2 0  9997
2 39770  98.0024 107.8290 0004302 120.4594 239.7061 15.13060393517172
UNISAT-6                
1 40012U 14033C   23334.40807115  .00006850  00000+0  93380-3 0  9993
2 40012  97.6823 140.5384 0053462 235.4046 124.2117 14.77982163508316
DUCHIFAT-1              
1 40021U 14033M   23333.45002362  .00014905  00000+0  11558-2 0  9994
2 40021  98.0754 303.2497 0015822  64.2393 296.0461 15.01397259513958
QB50P1                  
1 40025U 14033R   23333.86975481  .00010713  00000+0  95541-3 0  9992
2 40025  98.0175 283.9788 0012529 102.0614 258.2012 14.96113506513400
ZDPS 2A                 
1 40901U 15049C   23334.00997224  .00265400  00000+0  20213-2 0  9997
2 40901  97.4215 355.2784 0002422 177.5076 182.6199 15.71458906454972
ZDPS 2B                 
1 40902U 15049D   23334.21777408  .00346954  00000+0  17814-2 0  9998
2 40902  97.4297 355.0141 0004163 161.1651 198.9771 15.80305132455058
KAITUO 1A               
1 40904U 15049F   23334.47343701  .00029504  00000+0  92006-3 0  9999
2 40904  97.4960 341.6871 0008331 320.1463  39.9166 15.33158115453726
2015-049G               
1 40905U 15049G   23334.46703456  .00012825  00000+0  53269-3 0  9992
2 40905  97.5258 337.2090 0011755 332.2737  27.7871 15.23896505453251
XW-2C                   
1 40906U 15049H   23334.46511756  .00024590  00000+0  79673-3 0  9992
2 40906  97.4906 342.7392 0008387 302.7773  57.2660 15.31969677453801
XW-2D                   
1 40907U 15049J   23334.47309731  .00029918  00000+0  87303-3 0  9990
2 40907  97.4874 343.8645 0006911 293.1541  66.8974 15.35269175453934
LILACSAT-2              
1 40908U 15049K   23334.48347872  .00011341  00000+0  49398-3 0  9993
2 40908  97.5273 337.3841 0012505 338.5603  21.5108 15.22308182453074
XW-2E                   
1 40909U 15049L   23334.48282620  .00098117  00000+0  14228-2 0  9992
2 40909  97.4378 352.6953 0003617 214.5924 145.5096 15.55501528454829
XW-2F                   
1 40910U 15049M   23334.49860107  .00093995  00000+0  14147-2 0  9996
2 40910  97.4479 351.9703 0004121 221.6687 138.4253 15.54494452454556
XW-2B                   
1 40911U 15049N   23334.49863070  .00029821  00000+0  87980-3 0  9992
2 40911  97.4853 344.2089 0006970 295.0059  65.0459 15.34923915453817
KAITUO 1B               
1 40912U 15049P   23334.42182182  .00212285  00000+0  16407-2 0  9997
2 40912  97.3933 357.8153 0005361 151.6999 208.4556 15.71250665455427
LAPAN-A2                
1 40931U 15052B   23333.75804696  .00001801  00000+0  15814-3 0  9990
2 40931   6.0017 344.4147 0012517 121.8609 238.2738 14.77499107441879
E-ST@R-II               
1 41459U 16025D   23334.44134091  .00080562  00000+0  15046-2 0  9996
2 41459  98.1586 194.0933 0076183 234.5030 124.9093 15.45276456418425
AIST-2D (RS-48)         
1 41465U 16026B   23334.44770080  .00075406  00000+0  58844-3 0  9993
2 41465  96.9652 203.8208 0004559 358.0465   2.0780 15.71438094425949
CAS-2T & KS-1Q          
1 41847U 16066G   23334.16748361  .00002046  00000+0  30784-3 0  9990
2 41847  98.4865  41.8408 0358188  59.2044 304.3888 14.40398947370696
ZHUHAI-1 02 (CAS-4B)    
1 42759U 17034B   23334.27564831  .00017682  00000+0  78251-3 0  9992
2 42759  43.0141 269.9731 0009845 107.3021 252.8906 15.21344741356894
ZHUHAI-1 01 (CAS-4A)    
1 42761U 17034D   23334.28969880  .00018440  00000+0  81404-3 0  9996
2 42761  43.0136 268.3851 0010555 109.1389 251.0604 15.21399053356908
MAX VALIER SAT          
1 42778U 17036P   23334.05552605  .00057154  00000+0  10198-2 0  9990
2 42778  97.1319   5.8937 0005361 198.6347 161.4710 15.49870297358317
RADFXSAT (FOX-1B)       
1 43017U 17073E   23333.74152125  .00013721  00000+0  91519-3 0  9995
2 43017  97.6032 211.6067 0222150 241.1912 116.6840 14.89137433325794
FOX-1D (AO-92)          
1 43137U 18004AC  23333.72269902  .00179179  00000+0  14536-2 0  9996
2 43137  97.3088  56.7189 0003589 246.9953 113.0931 15.70188586328026
DIWATA-2B               
1 43678U 18084H   23334.44815949  .00003540  00000+0  33584-3 0  9995
2 43678  98.0456 122.1064 0008855 340.4577  19.6301 14.94193539277086
